ORBCOMM FM103           
1 40091U 14040F   25131.52779153  .00000537  00000+0  15206-3 0  9995
2 40091  47.0043 190.9256 0000972 141.1057 218.9899 14.58119728558755
ORBCOMM FM114           
1 41179U 15081A   25131.34486661  .00000418  00000+0  12641-3 0  9996
2 41179  47.0021 100.8548 0002043 205.3130 154.7656 14.58158888499098
ORBCOMM FM119           
1 41180U 15081B   25131.05709591  .00000662  00000+0  17902-3 0  9992
2 41180  47.0020  11.5155 0001538 254.7787 105.2928 14.58091772500303
ORBCOMM FM105           
1 41181U 15081C   25131.37304350  .00000260  00000+0  11804-3 0  9991
2 41181  47.0029  11.3973 0001421 170.8866 189.2041 14.45193806495427
ORBCOMM FM110           
1 41182U 15081D   25131.18672040  .00000978  00000+0  24719-3 0  9990
2 41182  47.0011 101.0021 0002454 337.5977  22.4801 14.58047216498941
ORBCOMM FM118           
1 41183U 15081E   25131.30742672  .00000586  00000+0  16163-3 0  9993
2 41183  47.0032 100.8834 0005063 331.6608  28.4001 14.58448415499067
ORBCOMM FM112           
1 41184U 15081F   25131.03363153  .00000923  00000+0  23495-3 0  9998
2 41184  47.0006  10.7847 0001153 210.0402 150.0417 14.58116189500246
ORBCOMM FM113           
1 41185U 15081G   25131.35305639  .00000977  00000+0  24652-3 0  9994
2 41185  47.0023   9.5951 0001286 229.3396 130.7378 14.58111868500273
